O3B FM10                
1 40348U 14083A   26095.59906363 -.00000025  00000+0  00000+0 0  9994
2 40348   0.0432 335.9482 0002690  37.2869 346.7708  5.00115388206268
O3B FM11                
1 40349U 14083B   26095.41186919 -.00000025  00000+0  00000+0 0  9993
2 40349   0.0580   0.0142 0003011   1.4390 358.5465  5.00115628206275
O3B FM12                
1 40350U 14083C   26095.63883298 -.00000025  00000+0  00000+0 0  9993
2 40350   0.0571 359.4878 0002584  11.7125 348.8043  5.00115976206289
O3B FM9                 
1 40351U 14083D   26093.26697712 -.00000026  00000+0  00000+0 0  9996
2 40351   0.0591   0.1634 0002706  11.5018 348.3391  5.00115977206324
ASTRA 2G                
1 40364U 14089A   26095.82191560  .00000152  00000+0  00000+0 0  9999
2 40364   0.0549   6.6179 0004955  39.7410 111.8446  1.00274178 41249
SES-9                   
1 41380U 16013A   26095.83770715 -.00000343  00000+0  00000+0 0  9996
2 41380   0.0157 266.5681 0002012 149.3575 188.0691  1.00270963 36712
SES-10                  
1 42432U 17017A   26095.51775824 -.00000271  00000+0  00000+0 0  9991
2 42432   0.0051 112.1658 0002867 279.0982 282.0485  1.00270868 33026
SES-15                  
1 42709U 17026A   26095.64812964  .00000061  00000+0  00000+0 0  9995
2 42709   0.0303 321.5526 0000765  62.8767 273.6753  1.00271138  6707
SES-11 (ECHOSTAR 105)   
1 42967U 17063A   26095.65289632 -.00000088  00000+0  00000+0 0  9993
2 42967   0.0513  54.3950 0002856 338.9299 290.7229  1.00272416 30994
SES-14                  
1 43175U 18012B   26095.80692223 -.00000277  00000+0  00000+0 0  9991
2 43175   0.0061  56.9969 0000960 326.6486  53.4565  1.00272937  6299
O3B FM15                
1 43231U 18024A   26092.13440900 -.00000027  00000+0  00000+0 0  9996
2 43231   0.0502   3.1354 0002633   6.1622 350.7046  5.00115731147223
O3B FM16                
1 43232U 18024B   26095.78479951 -.00000025  00000+0  00000+0 0  9997
2 43232   0.0473   6.6042 0002696   4.8244 348.5765  5.00116044147318
O3B FM14                
1 43233U 18024C   26095.42578920 -.00000025  00000+0  00000+0 0  9995
2 43233   0.0458   6.2308 0002850   9.3737 344.4031  5.00115741147316
O3B FM13                
1 43234U 18024D   26084.69755415 -.00000024  00000+0  00000+0 0  9998
2 43234   0.0470 335.8508 0003967 348.6026  35.5167  5.00115556146887
SES-12                  
1 43488U 18049A   26095.87822834 -.00000268  00000+0  00000+0 0  9998
2 43488   0.0383  46.6758 0001622 267.8436 290.8155  1.00272534 28695
O3B FM20                
1 44112U 19020A   26095.05203959 -.00000025  00000+0  00000+0 0  9995
2 44112   0.0530   0.9141 0002663   2.6728 356.4138  5.00115564127905
O3B FM19                
1 44113U 19020B   26095.07913541 -.00000026  00000+0  00000+0 0  9994
2 44113   0.0578 352.7385 0004290  10.0637 357.1990  5.00116062127780
